#cP2017 11  6  0  0  0.00000000      96 ORBIT IGS14 HLM  IGS
## 1974  86400.00000000   900.00000000 58063 0.0000000000000
+   32   G01G02G03G04G05G06G07G08G09G10G11G12G13G14G15G16G17
+        G18G19G20G21G22G23G24G25G26G27G28G29G30G31G32  0  0
+          0  0  0  0  0  0  0  0  0  0  0  0  0  0  0  0  0
+          0  0  0  0  0  0  0  0  0  0  0  0  0  0  0  0  0
+          0  0  0  0  0  0  0  0  0  0  0  0  0  0  0  0  0
++         2  2  2  0  2  2  2  2  2  2  2  2  2  2  2  2  2
++         3  2  2  3  2  2  3  2  2  2  2  2  4  2  2  0  0
++         0  0  0  0  0  0  0  0  0  0  0  0  0  0  0  0  0
++         0  0  0  0  0  0  0  0  0  0  0  0  0  0  0  0  0
++         0  0  0  0  0  0  0  0  0  0  0  0  0  0  0  0  0
%c G  cc GPS ccc cccc cccc cccc cccc ccccc ccccc ccccc ccccc
%c cc cc ccc ccc cccc cccc cccc cccc ccccc ccccc ccccc ccccc
%f  1.2500000  1.025000000  0.00000000000  0.000000000000000
%f  0.0000000  0.000000000  0.00000000000  0.000000000000000
%i    0    0    0    0      0      0      0      0         0
%i    0    0    0    0      0      0      0      0         0
/* RAPID ORBIT COMBINATION FROM WEIGHTED AVERAGE OF:        
/* cod emr esa gfz jpl ngs sio usn whu                      
/* REFERENCED TO IGS TIME (IGST) AND TO WEIGHTED MEAN POLE: 
/* PCV:IGS14_1973 OL/AL:FES2004  NONE     Y  ORB:CMB CLK:CMB
*  2017 11  6  0  0  0.00000000
PG01 -20670.182226 -10712.112109  12901.512207     -8.558822  6  6  6 148       
PG02  13035.349953  22088.567013   7997.456900    288.213817  8  9  7 132       
PG03 -15721.647082   -455.125457  21376.893380    -46.180747  6  5  6 148       
PG04  -3899.729816 -14861.289605 -21832.205820 999999.999999
PG05   5786.940292  20034.321683 -16427.606339    -23.657593 10  6  5 136       
PG06   2084.335901  20322.928944  16987.708996    408.442992  4  7  6 143       
PG07 -15714.608920   3919.128253 -20928.085984    283.473076  9  8  5 128       
PG08 -20145.386308  -7104.513337 -15800.616334    -79.589679  5  8  9 146       
PG09 -24872.861232   8181.850535  -4522.171490    467.811044  7  6  8 145       
PG10  10695.832175 -24034.163255  -3056.624942    104.737265  8  6  8 151       
PG11 -24562.518706  -9174.705339   3246.944761   -725.008154  9 10 10 170       
PG12  13655.558500   5029.081528  22050.237542    366.071906  9  8  8 142       
PG13  13239.459565  12492.294737 -19449.119341    -93.605090  7  7  8 130       
PG14   4258.025874 -15472.305804  21418.119840    -87.916788  7  8  6 143       
PG15  22301.681983   4928.497163 -14061.302989   -357.035189  9  6  8 146       
PG16  -4073.646744 -19371.147351 -17636.367888     36.582472  6  8  7 152       
PG17 -14073.415277  14007.672977  17937.554979   -146.466755  8  7  6 123       
PG18  14877.851246 -17779.071078 -12209.171209    632.350704 11  7  6 156       
PG19  -6240.458194  14704.117956  20983.112053   -477.233365  9  6  7 134       
PG20  15363.676274   4567.466238 -21332.902661    491.911119  8  7  7 134       
PG21  13532.776428  -7651.518051 -20756.324836   -464.748233  8  9  7 152       
PG22 -13861.068127  -9056.572776  21001.526165   -179.354320  6  8  5 141       
PG23 -26115.450361    583.079169   6188.821789   -218.532440  8  8  4 148       
PG24  21341.252599  12328.317233  10147.935711    -41.872580 13 13 10 146       
PG25  16521.215801  -9049.146262  18478.708418   -484.765354  8  7  9 139       
PG26   2384.885783 -25097.229067  -8180.928110   -372.457542  7  6  8 142       
PG27  -8710.100877 -13121.467122 -21480.801527    344.849000  9  6  9 151       
PG28 -13712.461106  21985.007398  -5225.193167    660.119106 10  4  4 142       
PG29  26354.656215  -3257.117862     65.283534    541.968124  9  8  7 142       
PG30  -8218.404809  14093.932595 -20925.152488    129.966719 13 10 15 139       
PG31  -3435.086415 -21251.301823  15343.055023    164.038277  6  7  8 144       
PG32  11370.724098 -15387.693176  18419.167630   -520.743218  8  8  6 145       
*  2017 11  6  0 15  0.00000000
PG01 -21438.933437 -11833.108102  10489.801162     -8.560974  6  5  7 136       
PG02  12168.428593  21559.496224  10541.496402    288.205026  7  9  7 113       
PG03 -15003.278089  -2818.939873  21713.156587    -46.175949  6  5  5 137       
PG04  -1553.433537 -15571.199381 -21579.535726 999999.999999
PG05   5078.545657  21661.546760 -14448.360752    -23.656371 10  5  5 123       
PG06    608.531066  18916.651367  18650.103685    408.444627  4  8  6 123       
PG07 -17231.424897   2090.683373 -20024.410587    283.468463  9  8  4 126       
PG08 -18310.575995  -7678.950523 -17640.974450    -79.590934  5  7  9 139       
PG09 -25278.709611   7996.319575  -1711.124488    467.815401  7  5  8 136       
PG10  10792.312639 -23464.196189  -5857.813130    104.744452  8  5  7 142       
PG11 -24639.922071  -9679.057656    515.370003   -725.009571  9  9 10 151       
PG12  12739.941071   7404.619712  21945.930176    366.070553  9  8  8 127       
PG13  10991.877405  12808.673697 -20617.161293    -93.605236  7  7  7 108       
PG14   6595.018305 -15725.636742  20601.002608    -87.917547  7  7  6 132       
PG15  20750.570249   5623.871438 -16027.646696   -357.035052  8  6  8 138       
PG16  -3234.593225 -21074.677125 -15703.714117     36.582287  6  7  7 145       
PG17 -15950.112351  14199.513415  16067.184701   -146.464339  8  7  6  95       
PG18  14756.862318 -16132.756682 -14366.505322    632.351230 10  7  4 149       
PG19  -8623.064558  14925.993465  19991.317135   -477.231432  9  6  6 118       
PG20  14842.323713   6916.905955 -21068.793299    491.912394  8  7  7 121       
PG21  15256.274324  -5821.998593 -20174.261133   -464.745076  8  8  5 143       
PG22 -13188.598386 -11289.947086  20331.757344   -179.365600  6  7  5 142       
PG23 -25372.676107    157.065167   8812.905572   -218.532547  8  7  3 141       
PG24  21872.533599  13239.057622   7592.168040    -41.873248 12 12 10 142       
PG25  15950.410433  -6893.611121  19866.436243   -484.771003  8  7  8 126       
PG26   2859.637284 -25773.700117  -5471.349885   -372.445658  7  6  8 130       
PG27  -6310.316290 -13685.203246 -21944.476105    344.852361  9  5  8 147       
PG28 -13562.801107  21147.865460  -7997.820171    660.122335 10  5  3 145       
PG29  26212.967674  -3039.655837   2958.284392    541.963364 10  7  7 131       
PG30  -9798.735725  12245.702783 -21415.182800    129.964242 12  6 15 145       
PG31  -2080.581963 -19951.196898  17258.567316    164.035913  6  6  7 129       
PG32  13366.296609 -15680.892342  16748.779743   -520.746373  8  7  6 129       
*  2017 11  6  0 30  0.00000000
PG01 -22065.183236 -12711.261600   7899.146017     -8.563146  5  5  7 134       
PG02  11073.685873  20894.764689  12911.054539    288.196242  6  8  6 116       
PG03 -14404.474755  -5232.793960  21675.066048    -46.171161  6  5  5 135       
PG04    712.408890 -16385.836154 -20959.544807 999999.999999
PG05   4505.131189  23091.623548 -12219.591798    -23.655411 10  5  5 111       
PG06  -1062.428545  17473.064217  19991.972890    408.446287  4  8  6 121       
PG07 -18752.532757    434.595859 -18773.823451    283.464046  9  8  4 121       
PG08 -16324.562696  -8405.233456 -19177.759111    -79.592229  5  7  8 120       
PG09 -25387.045358   7741.312216   1129.342003    467.819917  6  5  7 137       
PG10  10842.080646 -22596.904275  -8557.299333    104.751628  8  4  6 138       
PG11 -24453.176139 -10063.918944  -2225.212662   -725.011227  8  8  9 167       
PG12  11969.634294   9793.442082  21458.595523    366.069473  8  8  8 125       
PG13   8654.652679  13262.910713 -21433.804793    -93.605702  7  6  7 104       
PG14   8809.091713 -16080.314871  19436.608979    -87.918272  7  7  6 130       
PG15  19042.203162   6463.501221 -17725.961421   -357.035375  8  6  8 132       
PG16  -2565.557146 -22601.564228 -13498.391779     36.582100  7  6  7 143       
PG17 -17596.931267  14443.837198  13925.383275   -146.462267  8  7  6  94       
PG18  14665.178058 -14251.053785 -16265.131265    632.351871 10  7  5 147       
PG19 -10855.364229  15253.443835  18649.108763   -477.229466  9  7  6 120       
PG20  14439.705876   9239.310965 -20447.159268    491.913577  8  7  7 122       
PG21  16994.761939  -4137.563684 -19220.262718   -464.741634  8  8  4 141       
PG22 -12639.588135 -13461.446245  19318.950469   -179.377074  6  7  5 141       
PG23 -24379.910400   -384.964976  11290.328799   -218.532942  8  7  3 135       
PG24  22230.462865  13922.999663   4907.330480    -41.873928 12 11  9 132       
PG25  15462.119022  -4577.088552  20905.816604   -484.776608  7  7  8 125       
PG26   3226.627491 -26169.337293  -2666.991125   -372.433763  7  5  7 128       
PG27  -3913.029293 -14388.929519 -22033.127714    344.855709  9  5  7 145       
PG28 -13362.600115  20006.211138 -10629.674763    660.125319 10  6  3 141       
PG29  25765.726786  -2744.143609   5800.333162    541.959258 10  7  7 127       
PG30 -11491.349806  10453.902462 -21536.055692    129.961782 11  1 14 146       
PG31   -523.234867 -18580.705436  18873.791312    164.033700  4  6  6 128       
PG32  15147.373306 -16019.372811  14789.941550   -520.749505  8  7  6 127       
EOF
